NORAD_CAT_ID,OBJECT_NAME,OBJECT_TYPE,EPOCH,MEAN_MOTION,ECCENTRICITY,INCLINATION,RA_OF_ASC_NODE,ARG_OF_PERICENTER,MEAN_ANOMALY,BSTAR,MEAN_MOTION_DOT,MEAN_MOTION_DDOT,TLE_LINE0,TLE_LINE1,TLE_LINE2,SEMIMAJOR_AXIS,PERIOD,APOGEE,PERIGEE,DECAYED
55661.0,STARLINK-5475,PAYLOAD,2024-01-06 10:44:27,14.98334327,0.0002739,70.0,4.5398,270.0066,90.0779,-4.4013e-05,-6.18e-06,0.0,0 STARLINK-5475,1 55661U 23021AK  24006.44753802 -.00000618  00000-0 -44013-4 0  9999,2 55661  70.0000   4.5398 0002739 270.0066  90.0779 14.98334327 50464,6950.18,96.107,573.948,570.141,0.0
55661.0,STARLINK-5475,PAYLOAD,2024-01-07 04:21:56,14.98344477,0.0002716,70.0004,2.6896,262.9514,97.1336,-0.00029933,-3.664e-05,0.0,0 STARLINK-5475,1 55661U 23021AK  24007.18189988 -.00003664  00000-0 -29933-3 0  9996,2 55661  70.0004   2.6896 0002716 262.9514  97.1336 14.98344477 50276,6950.148,96.106,573.901,570.125,0.0
55661.0,STARLINK-5475,PAYLOAD,2024-01-07 09:10:20,14.98328392,0.0002844,70.0001,2.182,270.5212,89.5621,2.1261e-05,1.61e-06,0.0,0 STARLINK-5475,1 55661U 23021AK  24007.38218127  .00000161  00000-0  21261-4 0  9990,2 55661  70.0001   2.1820 0002844 270.5212  89.5621 14.98328392 50604,6950.198,96.107,574.039,570.086,0.0
55661.0,STARLINK-5475,PAYLOAD,2024-01-08 09:12:21,14.98295888,0.0002427,70.0002,359.6577,270.338,89.7501,0.00062756,7.396e-05,0.0,0 STARLINK-5475,1 55661U 23021AK  24008.38358735  .00007396  00000-0  62756-3 0  9991,2 55661  70.0002 359.6577 0002427 270.3380  89.7501 14.98295888 50450,6950.298,96.109,573.85,570.477,0.0
55661.0,STARLINK-5475,PAYLOAD,2024-01-09 04:25:58,14.98328703,0.0002314,70.0005,357.6372,255.8536,104.2366,3.0095e-05,2.66e-06,0.0,0 STARLINK-5475,1 55661U 23021AK  24009.18469998  .00000266  00000-0  30095-4 0  9995,2 55661  70.0005 357.6372 0002314 255.8536 104.2366 14.98328703 50578,6950.197,96.107,573.67,570.454,0.0
55661.0,STARLINK-5475,PAYLOAD,2024-01-09 09:14:22,14.98330119,0.0002654,70.0003,357.1325,272.6934,87.3922,5.8587e-05,6.06e-06,0.0,0 STARLINK-5475,1 55661U 23021AK  24009.38497886  .00000606  00000-0  58587-4 0  9998,2 55661  70.0003 357.1325 0002654 272.6934  87.3922 14.98330119 50905,6950.193,96.107,573.902,570.213,0.0
55661.0,STARLINK-5475,PAYLOAD,2024-01-09 22:03:26,14.98332045,0.0002619,70.0004,355.7865,271.8313,88.2546,9.7843e-06,2.4e-07,0.0,0 STARLINK-5475,1 55661U 23021AK  24009.91905819  .00000024  00000-0  97843-5 0  9990,2 55661  70.0004 355.7865 0002619 271.8313  88.2546 14.98332045 50982,6950.187,96.107,573.872,570.231,0.0
55661.0,STARLINK-5475,PAYLOAD,2024-01-10 04:27:58,14.98331097,0.0002647,70.0004,355.1128,270.6634,89.4222,-2.5511e-06,-1.23e-06,0.0,0 STARLINK-5475,1 55661U 23021AK  24010.18609863 -.00000123  00000-0 -25511-5 0  9996,2 55661  70.0004 355.1128 0002647 270.6634  89.4222 14.98331097 50724,6950.189,96.107,573.894,570.215,0.0
55661.0,STARLINK-5475,PAYLOAD,2024-01-10 09:16:21,14.9834465,0.0002817,70.0002,354.6075,267.8615,92.2221,0.00014551,1.644e-05,0.0,0 STARLINK-5475,1 55661U 23021AK  24010.38636494  .00001644  00000-0  14551-3 0  9995,2 55661  70.0002 354.6075 0002817 267.8615  92.2221 14.98344650 50756,6950.148,96.106,573.97,570.055,0.0
55661.0,STARLINK-5475,PAYLOAD,2024-01-11 07:42:15,14.98328985,0.0002659,70.0005,352.2509,273.7762,86.3093,-5.4109e-05,-7.38e-06,0.0,0 STARLINK-5475,1 55661U 23021AK  24011.32101127 -.00000738  00000-0 -54109-4 0  9999,2 55661  70.0005 352.2509 0002659 273.7762  86.3093 14.98328985 50897,6950.196,96.107,573.909,570.213,0.0
55661.0,STARLINK-5475,PAYLOAD,2024-01-11 22:07:28,14.98324995,0.0002114,70.0026,350.7359,253.2171,106.8757,-0.00015716,-1.967e-05,0.0,0 STARLINK-5475,1 55661U 23021AK  24011.92185870 -.00001967  00000-0 -15716-3 0  9997,2 55661  70.0026 350.7359 0002114 253.2171 106.8757 14.98324995 51285,6950.208,96.107,573.543,570.604,0.0
55661.0,STARLINK-5475,PAYLOAD,2024-01-12 02:55:53,14.98318125,0.0002429,70.001,350.232,254.5452,105.5439,-0.00013494,-1.702e-05,0.0,0 STARLINK-5475,1 55661U 23021AK  24012.12214292 -.00001702  00000-0 -13494-3 0  9999,2 55661  70.0010 350.2320 0002429 254.5452 105.5439 14.98318125 51018,6950.23,96.108,573.783,570.406,0.0
55661.0,STARLINK-5475,PAYLOAD,2024-01-12 07:44:17,14.98336111,0.0002393,70.0019,349.7273,246.6141,113.4767,-0.00048685,-5.898e-05,0.0,0 STARLINK-5475,1 55661U 23021AK  24012.32241935 -.00005898  00000-0 -48685-3 0  9995,2 55661  70.0019 349.7273 0002393 246.6141 113.4767 14.98336111 51044,6950.174,96.107,573.702,570.376,0.0
55661.0,STARLINK-5475,PAYLOAD,2024-01-12 22:09:29,14.98392581,0.0002811,70.0007,348.2127,263.7142,96.3697,-0.0011076,-0.00013305,0.0,0 STARLINK-5475,1 55661U 23021AK  24012.92325237 -.00013305  00000-0 -11076-2 0  9994,2 55661  70.0007 348.2127 0002811 263.7142  96.3697 14.98392581 51436,6949.999,96.103,573.818,569.911,0.0
55661.0,STARLINK-5475,PAYLOAD,2024-01-13 02:57:53,14.98343134,0.0002662,70.0007,347.7079,257.9615,102.1246,-0.00032379,-3.955e-05,0.0,0 STARLINK-5475,1 55661U 23021AK  24013.12353322 -.00003955  00000-0 -32379-3 0  9993,2 55661  70.0007 347.7079 0002662 257.9615 102.1246 14.98343134 51166,6950.152,96.106,573.867,570.167,0.0
55661.0,STARLINK-5475,PAYLOAD,2024-01-13 07:46:17,14.98334297,0.0002685,70.0007,347.2024,259.6389,100.4467,-9.2819e-05,-1.2e-05,0.0,0 STARLINK-5475,1 55661U 23021AK  24013.32381194 -.00001200  00000-0 -92819-4 0  9990,2 55661  70.0007 347.2024 0002685 259.6389 100.4467 14.98334297 51495,6950.18,96.107,573.911,570.178,0.0
55661.0,STARLINK-5475,PAYLOAD,2024-01-14 04:36:02,14.98322147,0.0002754,70.0006,345.014,261.2988,98.7859,0.00012314,1.376e-05,0.0,0 STARLINK-5475,1 55661U 23021AK  24014.19169868  .00001376  00000-0  12314-3 0  9991,2 55661  70.0006 345.0140 0002754 261.2988  98.7859 14.98322147 51327,6950.217,96.108,573.996,570.168,0.0
55661.0,STARLINK-5475,PAYLOAD,2024-01-14 07:48:18,14.98324683,0.0002718,70.0008,344.6778,260.1752,99.91,0.00014751,1.667e-05,0.0,0 STARLINK-5475,1 55661U 23021AK  24014.32521689  .00001667  00000-0  14751-3 0  9999,2 55661  70.0008 344.6778 0002718 260.1752  99.9100 14.98324683 51642,6950.209,96.107,573.963,570.185,0.0
55661.0,STARLINK-5475,PAYLOAD,2024-01-14 22:13:31,14.98332508,0.0002689,70.0009,343.1635,259.59,100.4956,5.5584e-05,5.7e-06,0.0,0 STARLINK-5475,1 55661U 23021AK  24014.92605524  .00000570  00000-0  55584-4 0  9998,2 55661  70.0009 343.1635 0002689 259.5900 100.4956 14.98332508 51735,6950.185,96.107,573.919,570.181,0.0
55661.0,STARLINK-5475,PAYLOAD,2024-01-15 03:01:55,14.98333859,0.0002666,70.001,342.6581,259.3552,100.7307,6.9735e-05,7.39e-06,0.0,0 STARLINK-5475,1 55661U 23021AK  24015.12633354  .00000739  00000-0  69735-4 0  9993,2 55661  70.0010 342.6581 0002666 259.3552 100.7307 14.98333859 51460,6950.181,96.107,573.899,570.193,0.0
55661.0,STARLINK-5475,PAYLOAD,2024-01-15 07:50:19,14.98337134,0.0002623,70.0012,342.1533,258.4518,101.6347,0.00010337,1.141e-05,0.0,0 STARLINK-5475,1 55661U 23021AK  24015.32660984  .00001141  00000-0  10337-3 0  9995,2 55661  70.0012 342.1533 0002623 258.4518 101.6347 14.98337134 51799,6950.171,96.107,573.859,570.213,0.0
55661.0,STARLINK-5475,PAYLOAD,2024-01-16 07:52:20,14.98335519,0.0002177,70.0025,339.6266,251.5657,108.5265,9.6813e-05,1.063e-05,0.0,0 STARLINK-5475,1 55661U 23021AK  24016.32800937  .00001063  00000-0  96813-4 0  9997,2 55661  70.0025 339.6266 0002177 251.5657 108.5265 14.98335519 51643,6950.176,96.107,573.554,570.528,0.0
55661.0,STARLINK-5475,PAYLOAD,2024-01-16 22:17:32,14.983321,0.0002485,70.0028,338.1118,242.1694,117.9213,1.0857e-05,3.7e-07,0.0,0 STARLINK-5475,1 55661U 23021AK  24016.92885036  .00000037  00000-0  10857-4 0  9990,2 55661  70.0028 338.1118 0002485 242.1694 117.9213 14.98332100 52039,6950.186,96.107,573.779,570.324,0.0
55661.0,STARLINK-5475,PAYLOAD,2024-01-17 01:29:49,14.98331098,0.0002803,70.0007,337.775,256.4113,103.6733,-7.9894e-05,-1.046e-05,0.0,0 STARLINK-5475,1 55661U 23021AK  24017.06237382 -.00001046  00000-0 -79894-4 0  9990,2 55661  70.0007 337.7750 0002803 256.4113 103.6733 14.98331098 51753,6950.189,96.107,574.003,570.106,0.0
55661.0,STARLINK-5475,PAYLOAD,2024-01-17 06:18:13,14.98326025,0.0002614,70.0022,337.2704,244.7665,115.3223,-7.2166e-05,-9.54e-06,0.0,0 STARLINK-5475,1 55661U 23021AK  24017.26265685 -.00000954  00000-0 -72166-4 0  9991,2 55661  70.0022 337.2704 0002614 244.7665 115.3223 14.98326025 52081,6950.205,96.107,573.887,570.253,0.0
55661.0,STARLINK-5475,PAYLOAD,2024-01-17 22:19:34,14.98330756,0.0002483,70.0022,335.5873,254.1177,105.9709,-0.00012032,-1.528e-05,0.0,0 STARLINK-5475,1 55661U 23021AK  24017.93025706 -.00001528  00000-0 -12032-3 0  9996,2 55661  70.0022 335.5873 0002483 254.1177 105.9709 14.98330756 52187,6950.191,96.107,573.781,570.33,0.0
55661.0,STARLINK-5475,PAYLOAD,2024-01-18 03:07:58,14.98328679,0.0002796,70.0011,335.0824,261.5336,98.5506,-0.00016433,-2.053e-05,0.0,0 STARLINK-5475,1 55661U 23021AK  24018.13053974 -.00002053  00000-0 -16433-3 0  9990,2 55661  70.0011 335.0824 0002796 261.5336  98.5506 14.98328679 51915,6950.197,96.107,574.005,570.119,0.0
55661.0,STARLINK-5475,PAYLOAD,2024-01-18 07:56:22,14.9833019,0.000278,70.0011,334.5774,261.0661,99.0184,-0.00013935,-1.755e-05,0.0,0 STARLINK-5475,1 55661U 23021AK  24018.33081814 -.00001755  00000-0 -13935-3 0  9998,2 55661  70.0011 334.5774 0002780 261.0661  99.0184 14.98330190 52248,6950.192,96.107,573.989,570.125,0.0
55661.0,STARLINK-5475,PAYLOAD,2024-01-18 22:21:35,14.98326291,0.0002711,70.0011,333.0629,256.2132,103.8725,4.8642e-05,4.87e-06,0.0,0 STARLINK-5475,1 55661U 23021AK  24018.93165599  .00000487  00000-0  48642-4 0  9990,2 55661  70.0011 333.0629 0002711 256.2132 103.8725 14.98326291 52336,6950.204,96.107,573.954,570.185,0.0
55661.0,STARLINK-5475,PAYLOAD,2024-01-19 03:09:59,14.98327711,0.0002684,70.0011,332.5582,255.7204,104.3657,6.3675e-05,6.67e-06,0.0,0 STARLINK-5475,1 55661U 23021AK  24019.13193509  .00000667  00000-0  63675-4 0  9998,2 55661  70.0011 332.5582 0002684 255.7204 104.3657 14.98327711 52069,6950.2,96.107,573.93,570.2,0.0
